NORAD_CAT_ID,OBJECT_NAME,OBJECT_TYPE,EPOCH,MEAN_MOTION,ECCENTRICITY,INCLINATION,RA_OF_ASC_NODE,ARG_OF_PERICENTER,MEAN_ANOMALY,BSTAR,MEAN_MOTION_DOT,MEAN_MOTION_DDOT,TLE_LINE0,TLE_LINE1,TLE_LINE2,SEMIMAJOR_AXIS,PERIOD,APOGEE,PERIGEE,DECAYED
53564.0,STARLINK-4577,PAYLOAD,2024-03-17 04:55:34,15.08837543,0.0001777,53.2189,57.537,82.5729,277.5465,4.7817e-05,4.73e-06,0.0,0 STARLINK-4577,1 53564U 22101AP  24077.20525884  .00000473  00000-0  47817-4 0  9998,2 53564  53.2189  57.5370 0001777  82.5729 277.5465 15.08837543 87370,6917.888,95.438,540.982,538.524,0.0
53564.0,STARLINK-4577,PAYLOAD,2024-03-17 08:06:20,15.0883805,0.0001765,53.219,56.9427,85.4414,274.678,4.5512e-05,4.36e-06,0.0,0 STARLINK-4577,1 53564U 22101AP  24077.33773860  .00000436  00000-0  45512-4 0  9990,2 53564  53.2190  56.9427 0001765  85.4414 274.6780 15.08838050 87392,6917.886,95.438,540.972,538.53,0.0
53564.0,STARLINK-4577,PAYLOAD,2024-03-18 04:46:20,15.08847804,0.000185,53.2194,53.0772,79.4464,280.6737,4.9778e-05,5.04e-06,0.0,0 STARLINK-4577,1 53564U 22101AP  24078.19885107  .00000504  00000-0  49778-4 0  9997,2 53564  53.2194  53.0772 0001850  79.4464 280.6737 15.08847804 87521,6917.857,95.437,541.001,538.442,0.0
53564.0,STARLINK-4577,PAYLOAD,2024-03-19 04:37:07,15.08842674,0.0001581,53.2182,48.621,99.6722,260.4448,4.1322e-05,3.7e-06,0.0,0 STARLINK-4577,1 53564U 22101AP  24079.19245250  .00000370  00000-0  41322-4 0  9995,2 53564  53.2182  48.6210 0001581  99.6722 260.4448 15.08842674 87678,6917.872,95.437,540.831,538.644,0.0
53564.0,STARLINK-4577,PAYLOAD,2024-03-19 07:47:54,15.08843458,0.0001538,53.2179,48.0245,97.179,262.9377,5.1424e-05,5.31e-06,0.0,0 STARLINK-4577,1 53564U 22101AP  24079.32493135  .00000531  00000-0  51424-4 0  9990,2 53564  53.2179  48.0245 0001538  97.1790 262.9377 15.08843458 87697,6917.87,95.437,540.799,538.671,0.0
53564.0,STARLINK-4577,PAYLOAD,2024-03-20 04:27:54,15.08850492,0.000151,53.2188,44.158,103.6096,256.5064,1.8322e-05,4e-08,0.0,0 STARLINK-4577,1 53564U 22101AP  24080.18604591  .00000004  00000-0  18322-4 0  9991,2 53564  53.2188  44.1580 0001510 103.6096 256.5064 15.08850492 87821,6917.848,95.437,540.758,538.669,0.0
53564.0,STARLINK-4577,PAYLOAD,2024-03-21 04:18:41,15.08843716,0.0001117,53.2172,39.7041,99.0197,261.0922,-2.4069e-05,-6.71e-06,0.0,0 STARLINK-4577,1 53564U 22101AP  24081.17965271 -.00000671  00000-0 -24069-4 0  9993,2 53564  53.2172  39.7041 0001117  99.0197 261.0922 15.08843716 87970,6917.869,95.437,540.507,538.961,0.0
53564.0,STARLINK-4577,PAYLOAD,2024-03-21 13:51:00,15.0884446,0.0001218,53.2174,37.9175,80.5455,279.5674,2.8831e-05,1.71e-06,0.0,0 STARLINK-4577,1 53564U 22101AP  24081.57709161  .00000171  00000-0  28831-4 0  9995,2 53564  53.2174  37.9175 0001218  80.5455 279.5674 15.08844460 88037,6917.867,95.437,540.574,538.889,0.0
53564.0,STARLINK-4577,PAYLOAD,2024-03-22 07:20:14,15.08855766,0.0001437,53.2184,34.6461,111.9138,248.2007,0.00010591,1.399e-05,0.0,0 STARLINK-4577,1 53564U 22101AP  24082.30572111  .00001399  00000-0  10591-3 0  9996,2 53564  53.2184  34.6461 0001437 111.9138 248.2007 15.08855766 88146,6917.832,95.437,540.691,538.703,0.0
53564.0,STARLINK-4577,PAYLOAD,2024-03-23 04:00:17,15.08834898,0.0001424,53.219,30.7818,73.8116,286.3032,-6.292e-06,-3.88e-06,0.0,0 STARLINK-4577,1 53564U 22101AP  24083.16686536 -.00000388  00000-0 -62920-5 0  9992,2 53564  53.2190  30.7818 0001424  73.8116 286.3032 15.08834898 88272,6917.896,95.438,540.746,538.776,0.0
53564.0,STARLINK-4577,PAYLOAD,2024-03-23 19:54:08,15.08834586,0.0001439,53.2194,27.8094,86.7242,273.3915,6.1532e-05,6.91e-06,0.0,0 STARLINK-4577,1 53564U 22101AP  24083.82926499  .00000691  00000-0  61532-4 0  9992,2 53564  53.2194  27.8094 0001439  86.7242 273.3915 15.08834586 88379,6917.897,95.438,540.757,538.766,0.0
53564.0,STARLINK-4577,PAYLOAD,2024-03-24 03:51:01,15.08867162,0.0001585,53.2199,26.3177,97.7176,262.3996,0.00023623,3.476e-05,0.0,0 STARLINK-4577,1 53564U 22101AP  24084.16043887  .00003476  00000-0  23623-3 0  9993,2 53564  53.2199  26.3177 0001585  97.7176 262.3996 15.08867162 88429,6917.797,95.436,540.759,538.566,0.0
53564.0,STARLINK-4577,PAYLOAD,2024-03-24 05:26:24,15.08869997,0.0001432,53.2197,26.0204,100.0139,260.1015,0.00022464,3.292e-05,0.0,0 STARLINK-4577,1 53564U 22101AP  24084.22667580  .00003292  00000-0  22464-3 0  9990,2 53564  53.2197  26.0204 0001432 100.0139 260.1015 15.08869997 88430,6917.789,95.436,540.644,538.663,0.0
53564.0,STARLINK-4577,PAYLOAD,2024-03-25 02:06:28,15.08838505,9.11e-05,53.2196,22.1607,90.8759,269.2338,5.4636e-05,5.82e-06,0.0,0 STARLINK-4577,1 53564U 22101AP  24085.08782469  .00000582  00000-0  54636-4 0  9995,2 53564  53.2196  22.1607 0000911  90.8759 269.2338 15.08838505 88561,6917.885,95.438,540.38,539.12,0.0
53564.0,STARLINK-4577,PAYLOAD,2024-03-25 13:14:10,15.08830862,0.0001137,53.2183,20.079,77.791,282.3209,-6.9087e-05,-1.387e-05,0.0,0 STARLINK-4577,1 53564U 22101AP  24085.55151313 -.00001387  00000-0 -69087-4 0  9997,2 53564  53.2183  20.0790 0001137  77.7910 282.3209 15.08830862 88630,6917.908,95.438,540.56,538.987,0.0
53564.0,STARLINK-4577,PAYLOAD,2024-03-25 22:46:29,15.0883681,0.0001123,53.2179,18.2943,73.7243,286.3873,-0.00010836,-2.012e-05,0.0,0 STARLINK-4577,1 53564U 22101AP  24085.94895344 -.00002012  00000-0 -10836-3 0  9992,2 53564  53.2179  18.2943 0001123  73.7243 286.3873 15.08836810 88690,6917.89,95.438,540.532,538.978,0.0
53564.0,STARLINK-4577,PAYLOAD,2024-03-26 05:08:00,15.08861737,0.0001123,53.219,17.0994,107.8349,252.2766,-2.4225e-05,-6.74e-06,0.0,0 STARLINK-4577,1 53564U 22101AP  24086.21389270 -.00000674  00000-0 -24225-4 0  9999,2 53564  53.2190  17.0994 0001123 107.8349 252.2766 15.08861737 88736,6917.814,95.436,540.456,538.902,0.0
53564.0,STARLINK-4577,PAYLOAD,2024-03-26 19:26:28,15.08832954,0.0001251,53.2184,14.4253,128.2242,231.8863,0.00054299,8.363e-05,0.0,0 STARLINK-4577,1 53564U 22101AP  24086.81004703  .00008363  00000-0  54299-3 0  9994,2 53564  53.2184  14.4253 0001251 128.2242 231.8863 15.08832954 88829,6917.902,95.438,540.632,538.901,0.0
53564.0,STARLINK-4577,PAYLOAD,2024-03-26 22:37:13,15.08863121,0.0001279,53.218,13.8328,109.8641,250.2489,0.00042651,6.511e-05,0.0,0 STARLINK-4577,1 53564U 22101AP  24086.94251349  .00006511  00000-0  42651-3 0  9990,2 53564  53.2180  13.8328 0001279 109.8641 250.2489 15.08863121 88840,6917.81,95.436,540.56,538.79,0.0
53564.0,STARLINK-4577,PAYLOAD,2024-03-27 01:48:00,15.08832436,0.0001351,53.219,13.2381,106.394,253.7201,0.00071393,0.0001109,0.0,0 STARLINK-4577,1 53564U 22101AP  24087.07500413  .00011090  00000-0  71393-3 0  9997,2 53564  53.2190  13.2381 0001351 106.3940 253.7201 15.08832436 88866,6917.904,95.438,540.703,538.834,0.0
53564.0,STARLINK-4577,PAYLOAD,2024-03-27 19:17:17,15.08830289,0.0001438,53.2202,9.9627,97.4874,262.6282,9.0269e-06,-1.44e-06,0.0,0 STARLINK-4577,1 53564U 22101AP  24087.80366998 -.00000144  00000-0  90269-5 0  9990,2 53564  53.2202   9.9627 0001438  97.4874 262.6282 15.08830289 88971,6917.91,95.438,540.77,538.78,0.0
53564.0,STARLINK-4577,PAYLOAD,2024-03-27 22:28:04,15.08814752,0.0001565,53.2197,9.3711,88.2759,271.8413,-0.00011608,-2.134e-05,0.0,0 STARLINK-4577,1 53564U 22101AP  24087.93616211 -.00002134  00000-0 -11608-3 0  9990,2 53564  53.2197   9.3711 0001565  88.2759 271.8413 15.08814752 88990,6917.958,95.439,540.905,538.74,0.0
53564.0,STARLINK-4577,PAYLOAD,2024-03-28 04:49:36,15.08826143,0.00012,53.219,8.1811,91.7392,268.3737,-0.00019398,-3.372e-05,0.0,0 STARLINK-4577,1 53564U 22101AP  24088.20111853 -.00003372  00000-0 -19398-3 0  9992,2 53564  53.2190   8.1811 0001200  91.7392 268.3737 15.08826143 89032,6917.923,95.438,540.618,538.958,0.0
53564.0,STARLINK-4577,PAYLOAD,2024-03-28 11:11:08,15.08833911,0.0001332,53.2208,6.9938,92.9478,267.1667,-0.00016846,-2.967e-05,0.0,0 STARLINK-4577,1 53564U 22101AP  24088.46607368 -.00002967  00000-0 -16846-3 0  9995,2 53564  53.2208   6.9938 0001332  92.9478 267.1667 15.08833911 89076,6917.899,95.438,540.685,538.843,0.0
53564.0,STARLINK-4577,PAYLOAD,2024-03-28 19:08:04,15.08844012,0.0001325,53.2199,5.5064,87.0727,273.0417,-0.00024346,-4.161e-05,0.0,0 STARLINK-4577,1 53564U 22101AP  24088.79727036 -.00004161  00000-0 -24346-3 0  9998,2 53564  53.2199   5.5064 0001325  87.0727 273.0417 15.08844012 89123,6917.868,95.437,540.65,538.817,0.0
53564.0,STARLINK-4577,PAYLOAD,2024-03-28 22:18:50,15.08847415,0.0001438,53.2194,4.9122,88.573,271.5427,-0.00019932,-3.459e-05,0.0,0 STARLINK-4577,1 53564U 22101AP  24088.92974659 -.00003459  00000-0 -19932-3 0  9992,2 53564  53.2194   4.9122 0001438  88.5730 271.5427 15.08847415 89147,6917.858,95.437,540.718,538.728,0.0
53564.0,STARLINK-4577,PAYLOAD,2024-03-29 01:29:35,15.08852876,0.0001457,53.2193,4.3182,89.9007,270.2153,-0.00012441,-2.268e-05,0.0,0 STARLINK-4577,1 53564U 22101AP  24089.06222048 -.00002268  00000-0 -12441-3 0  9991,2 53564  53.2193   4.3182 0001457  89.9007 270.2153 15.08852876 89160,6917.841,95.437,540.714,538.698,0.0
53564.0,STARLINK-4577,PAYLOAD,2024-03-29 11:01:54,15.08845897,0.0001642,53.2194,2.5343,88.1876,271.9304,-1.026e-05,-4.51e-06,0.0,0 STARLINK-4577,1 53564U 22101AP  24089.45966146 -.00000451  00000-0 -10260-4 0  9998,2 53564  53.2194   2.5343 0001642  88.1876 271.9304 15.08845897 89229,6917.862,95.437,540.863,538.591,0.0
53564.0,STARLINK-4577,PAYLOAD,2024-03-29 18:58:51,15.08830137,0.00019,53.2196,1.0516,96.3489,263.7719,0.00035463,5.359e-05,0.0,0 STARLINK-4577,1 53564U 22101AP  24089.79087479  .00005359  00000-0  35463-3 0  9999,2 53564  53.2196   1.0516 0001900  96.3489 263.7719 15.08830137 89270,6917.911,95.438,541.09,538.461,0.0
53564.0,STARLINK-4577,PAYLOAD,2024-03-29 22:09:37,15.0883114,0.000191,53.2199,0.4568,97.3548,262.7661,0.00035329,5.338e-05,0.0,0 STARLINK-4577,1 53564U 22101AP  24089.92335506  .00005338  00000-0  35329-3 0  9999,2 53564  53.2199   0.4568 0001910  97.3548 262.7661 15.08831140 89293,6917.907,95.438,541.094,538.451,0.0
